*******************************************************************************
 Revised: Jan 23, 2020            Tethys  / (Saturn)                        603
                          http://ssd.jpl.nasa.gov/?sat_phys_par
                            http://ssd.jpl.nasa.gov/?sat_elem

 SATELLITE PHYSICAL PROPERTIES:
  Mean Radius (km)       = 536.3  +- 1.5     Density (g/cm^3)  =  0.956+- 0.008
  Mass (10^19 kg)        =  61.76 +- 0.11    Geometric Albedo  =  0.80
  GM (km^3/s^2)          =  41.21 +- 0.007   V(1,0)            = +0.7

 SATELLITE ORBITAL DATA (mean values with respect to local Laplace plane):
  Semi-major axis, a (km)=  294.670(10^3)    Orbital period    =  1.888 d
  Eccentricity, e        =     0.0001        Rotational period = Synchronous
  Inclination, i  (deg)  =     1.091
*******************************************************************************
 
 
*******************************************************************************
Ephemeris / WWW_USER Wed Jun 17 13:24:09 2020 Pasadena, USA      / Horizons
*******************************************************************************
Target body name: Tethys (603)                    {source: sat427l_merged_DE438}
Center body name: Solar System Barycenter (0)     {source: DE431mx}
Center-site name: BODY CENTER
*******************************************************************************
Start time      : A.D. 2000-Jun-05 00:00:00.0000 TDB
Stop  time      : A.D. 2040-May-26 00:00:00.0000 TDB
Step-size       : 14400 minutes
*******************************************************************************
Center geodetic : 0.00000000,0.00000000,0.0000000 {E-lon(deg),Lat(deg),Alt(km)}
Center cylindric: 0.00000000,0.00000000,0.0000000 {E-lon(deg),Dxy(km),Dz(km)}
Center radii    : (undefined)                                                  
Output units    : AU-D
Output type     : GEOMETRIC cartesian states
Output format   : 3 (position, velocity, LT, range, range-rate)
Reference frame : Ecliptic of J2000.0
*******************************************************************************
JDTDB
   X     Y     Z
   VX    VY    VZ
   LT    RG    RR
*******************************************************************************
$$SOE
2453780.500000000 = A.D. 2006-Feb-14 00:00:00.0000 TDB 
 X =-5.655666983041121E+00 Y = 7.145653123798263E+00 Z = 1.003436207072903E-01
 VX=-7.330398192118894E-03 VY= 1.946944400927295E-03 VZ=-2.302695901719052E-03
 LT= 5.263553935852727E-02 RG= 9.113561127842726E+00 RR= 6.050260567785818E-03
2453790.500000000 = A.D. 2006-Feb-24 00:00:00.0000 TDB 
 X =-5.705355840166414E+00 Y = 7.111456514062492E+00 Z = 1.026888186046489E-01
 VX=-9.586360616203564E-03 VY=-7.177024187281690E-03 VZ= 2.507542255778771E-03
 LT= 5.266007398717355E-02 RG= 9.117809167107485E+00 RR= 4.290504001037417E-04
2453800.500000000 = A.D. 2006-Mar-06 00:00:00.0000 TDB 
 X =-5.751490204640533E+00 Y = 7.073456551634071E+00 Z = 1.065635860887238E-01
 VX= 9.172346913847397E-04 VY=-6.805524893541624E-03 VZ= 1.480314687870152E-03
 LT= 5.265701408649849E-02 RG= 9.117279361729082E+00 RR=-5.841249481754097E-03
2453810.500000000 = A.D. 2006-Mar-16 00:00:00.0000 TDB 
 X =-5.794702954674926E+00 Y = 7.038934689748274E+00 Z = 1.083088661586255E-01
 VX=-2.906783346476623E-03 VY= 2.024190356475439E-03 VZ=-2.740802485600601E-03
 LT= 5.266085649310954E-02 RG= 9.117944653810337E+00 RR= 3.377431836332494E-03
2453820.500000000 = A.D. 2006-Mar-26 00:00:00.0000 TDB 
 X =-5.842599520357166E+00 Y = 7.005470980146955E+00 Z = 1.097511003768581E-01
 VX=-1.111745302441218E-02 VY=-3.578122870353517E-03 VZ= 7.488511967804319E-04
 LT= 5.268863219050446E-02 RG= 9.122753866733051E+00 RR= 4.381415700031520E-03
2453830.500000000 = A.D. 2006-Apr-05 00:00:00.0000 TDB 
 X =-5.890091170875663E+00 Y = 6.967201821343392E+00 Z = 1.134929593780207E-01
 VX=-2.437387555962380E-03 VY=-9.200154040990140E-03 VZ= 2.942211232608116E-03
 LT= 5.269601278615860E-02 RG= 9.124031777256505E+00 RR=-5.415256765206360E-03
2453840.500000000 = A.D. 2006-Apr-15 00:00:00.0000 TDB 
 X =-5.932550233453187E+00 Y = 6.929975430868002E+00 Z = 1.161873902071948E-01
 VX= 7.614066381608866E-04 VY=-3.855847901942160E-04 VZ=-1.835662425202429E-03
 LT= 5.269134590292670E-02 RG= 9.123223731473583E+00 RR=-8.113861170021443E-04
2453850.500000000 = A.D. 2006-Apr-25 00:00:00.0000 TDB 
 X =-5.977760889073892E+00 Y = 6.896244536925681E+00 Z = 1.171748258058550E-01
 VX=-9.728197011377766E-03 VY= 1.143436392492516E-05 VZ=-1.246669025474244E-03
 LT= 5.271423626541313E-02 RG= 9.127187074878078E+00 RR= 6.364021147276466E-03
2453860.500000000 = A.D. 2006-May-05 00:00:00.0000 TDB 
 X =-6.025795729382055E+00 Y = 6.858727844992631E+00 Z = 1.201977613659372E-01
 VX=-6.739622271518369E-03 VY=-9.098629912889429E-03 VZ= 3.196396807521367E-03
 LT= 5.273361652767079E-02 RG= 9.130542663267811E+00 RR=-2.344793763341377E-03
2453870.500000000 = A.D. 2006-May-15 00:00:00.0000 TDB 
 X =-6.068832347164316E+00 Y = 6.819236784730717E+00 Z = 1.237319605411615E-01
 VX= 2.067050376129328E-03 VY=-4.242814353668877E-03 VZ= 1.225958364744681E-05
 LT= 5.272767549766356E-02 RG= 9.129514005809499E+00 RR=-4.543048071176754E-03
2453880.500000000 = A.D. 2006-May-25 00:00:00.0000 TDB 
 X =-6.111354887817157E+00 Y = 6.783995634942680E+00 Z = 1.249138457169745E-01
 VX=-6.008728332414897E-03 VY= 1.955593134761731E-03 VZ=-2.583165800704495E-03
 LT= 5.273995728959341E-02 RG= 9.131640532161775E+00 RR= 5.438840173855219E-03
2453890.500000000 = A.D. 2006-Jun-04 00:00:00.0000 TDB 
 X =-6.158566180238191E+00 Y = 6.747554796484605E+00 Z = 1.269463889376810E-01
 VX=-1.003507428067939E-02 VY=-6.584852713394989E-03 VZ= 2.121087815233834E-03
 LT= 5.276736462778189E-02 RG= 9.136385965664999E+00 RR= 1.930662635730375E-03
2453900.500000000 = A.D. 2006-Jun-14 00:00:00.0000 TDB 
 X =-6.202941645217857E+00 Y = 6.706890411522424E+00 Z = 1.308258502510596E-01
 VX= 4.549528493485129E-04 VY=-7.860253544897732E-03 VZ= 1.975896803095198E-03
 LT= 5.276813297377803E-02 RG= 9.136519000650267E+00 RR=-6.050598343311755E-03
2453910.500000000 = A.D. 2006-Jun-24 00:00:00.0000 TDB 
 X =-6.243660982079865E+00 Y = 6.669214492123424E+00 Z = 1.327612785096219E-01
 VX=-1.587580407422515E-03 VY= 1.353898891670579E-03 VZ=-2.656669848190284E-03
 LT= 5.276919827225653E-02 RG= 9.136703451364015E+00 RR= 2.034547051709205E-03
2453920.500000000 = A.D. 2006-Jul-04 00:00:00.0000 TDB 
 X =-6.288734468627631E+00 Y = 6.633338130864979E+00 Z = 1.339694769756108E-01
 VX=-1.081886663270354E-02 VY=-2.821482854365211E-03 VZ= 1.931244024469960E-04
 LT= 5.279698976590171E-02 RG= 9.141515399322678E+00 RR= 5.398120587311915E-03
2453930.500000000 = A.D. 2006-Jul-14 00:00:00.0000 TDB 
 X =-6.334293560817766E+00 Y = 6.592760612171515E+00 Z = 1.375353231845552E-01
 VX=-3.321951089827646E-03 VY=-9.657761289610250E-03 VZ= 3.171338404568641E-03
 LT= 5.280942811166206E-02 RG= 9.143669032130429E+00 RR=-4.614441274458480E-03
2453940.500000000 = A.D. 2006-Jul-24 00:00:00.0000 TDB 
 X =-6.374580380669659E+00 Y = 6.552462701941941E+00 Z = 1.404410252315904E-01
 VX= 1.592832727305523E-03 VY=-1.555542093402197E-03 VZ=-1.428139742324250E-03
 LT= 5.280408504163212E-02 RG= 9.142743908232742E+00 RR=-2.247338590833016E-03
2453950.500000000 = A.D. 2006-Aug-03 00:00:00.0000 TDB 
 X =-6.416834454600232E+00 Y = 6.516040405924142E+00 Z = 1.413553700415723E-01
 VX=-8.711837465022092E-03 VY= 4.742308058054341E-04 VZ=-1.725611064768162E-03
 LT= 5.282453637540847E-02 RG= 9.146284946907148E+00 RR= 6.423220121744732E-03
2453960.500000000 = A.D. 2006-Aug-13 00:00:00.0000 TDB 
 X =-6.462568676502882E+00 Y = 6.476421866952859E+00 Z = 1.440795097450169E-01
 VX=-7.542470903173251E-03 VY=-8.871606935358035E-03 VZ= 3.056807766357794E-03
 LT= 5.284823125164876E-02 RG= 9.150387587550036E+00 RR=-9.040173987575066E-04
2453970.500000000 = A.D. 2006-Aug-23 00:00:00.0000 TDB 
 X =-6.503659945283712E+00 Y = 6.434141344747330E+00 Z = 1.477304016676068E-01
 VX= 2.145927697931563E-03 VY=-5.505547954247253E-03 VZ= 5.575891718979547E-04
 LT= 5.284444367163414E-02 RG= 9.149731788399681E+00 RR=-5.387861196389893E-03
2453980.500000000 = A.D. 2006-Sep-02 00:00:00.0000 TDB 
 X =-6.543342426097574E+00 Y = 6.395967156670681E+00 Z = 1.490089043200669E-01
 VX=-4.622860230811842E-03 VY= 1.801879875881695E-03 VZ=-2.776058319221175E-03
 LT= 5.285338665504544E-02 RG= 9.151280217977439E+00 RR= 4.519593279951045E-03
2453990.500000000 = A.D. 2006-Sep-12 00:00:00.0000 TDB 
 X =-6.587835869818041E+00 Y = 6.357411380904354E+00 Z = 1.507307128230770E-01
 VX=-1.028989917117950E-02 VY=-5.892084976230981E-03 VZ= 1.676207499902969E-03
 LT= 5.288274149597365E-02 RG= 9.156362851127165E+00 RR= 3.340017779996111E-03
2454000.500000000 = A.D. 2006-Sep-22 00:00:00.0000 TDB 
 X =-6.630277267412648E+00 Y = 6.314334421862887E+00 Z = 1.545585062778290E-01
 VX=-1.426000064973507E-04 VY=-8.766565944386030E-03 VZ= 2.413904092555280E-03
 LT= 5.288788309051061E-02 RG= 9.157253090624627E+00 RR=-5.900946667864368E-03
2454010.500000000 = A.D. 2006-Oct-02 00:00:00.0000 TDB 
 X =-6.668449862626304E+00 Y = 6.273650449926834E+00 Z = 1.566926280268411E-01
 VX=-3.408584338411618E-04 VY= 5.388021880167331E-04 VZ=-2.482917070848419E-03
 LT= 5.288667904732585E-02 RG= 9.157044617009676E+00 RR= 5.748797111694083E-04
2454020.500000000 = A.D. 2006-Oct-12 00:00:00.0000 TDB 
 X =-6.710504422664653E+00 Y = 6.235454161007903E+00 Z = 1.576923742376440E-01
 VX=-1.030444594751419E-02 VY=-2.085100653273989E-03 VZ=-3.598809133026133E-04
 LT= 5.291352790445729E-02 RG= 9.161693352515426E+00 RR= 6.122201205114970E-03
2454030.500000000 = A.D. 2006-Oct-22 00:00:00.0000 TDB 
 X =-6.753900117439933E+00 Y = 6.192790126908697E+00 Z = 1.610381439019118E-01
 VX=-4.219439351853827E-03 VY=-9.915175448592687E-03 VZ= 3.306218033047347E-03
 LT= 5.293090027139415E-02 RG= 9.164701284607389E+00 RR=-3.532302960009232E-03
